idElset,classificationMarking,satNo,epoch,meanMotion,idOnOrbit,uct,eccentricity,inclination,raan,argOfPerigee,meanAnomaly,bStar,meanMotionDot,meanMotionDDot,semiMajorAxis,period,apogee,perigee,origObjectId,line1,line2,createdAt,createdBy,source,dataMode,ephemType,origNetwork,elset
44daf386-43bb-469c-9623-a36205ad4ec8,U//PR-EXO-ELSETS,32294,2025-08-09T20:28:26.824793Z,1.002686223397514,32294,False,0.000378330786789354,4.454958951720114,77.26517325538863,60.87355318321403,152.6424032196489,0.0,0.0,0.0,42165.62064518348,1436.142201216933,42181.57319761763,42149.66809274932,32294,1 32294U 07056B   25221.85308825 +.00000000 +00000+0 +00000+0 2 99998,2 32294   4.4550  77.2652 0003783  60.8736 152.6424  1.00268622000001,2025-08-09T20:57:30.878Z,system.exo,EXO,REAL,2,OPS1,"{'NORAD_ID': 32294, 'classification': 'U', 'COSPAR_ID': '07056B', 'BC': 0.0, 'n_ddot': 0.0, 'B_star': 0.0, 'ephemeris_type': 2, 'elset_num': 9999, 'inclination': 4.455, 'RAAN': 77.2652, 'eccentricity': 0.0003783, 'perigee': 60.8736, 'mean_anomaly': 152.6424, 'mean_motion': 1.00268622, 'rev_num': 0, 'line1': '1 32294U 07056B   25221.85308825 +.00000000 +00000+0 +00000+0 2 99998', 'line2': '2 32294   4.4550  77.2652 0003783  60.8736 152.6424  1.00268622000001', 'epoch': datetime.datetime(2025, 8, 9, 20, 28, 26, 824800)}"
6f06061b-34e6-42ff-a2a2-89d720ace40c,U//PR-EXO-ELSETS,26378,2025-08-09T20:29:28.035807Z,0.9876576443596508,26378,False,0.0009586352416033109,11.78551908007298,34.58206987932275,182.4299166453277,180.8361768665511,0.0,0.0,0.0,42592.28202402699,1457.995093971683,42633.11248659554,42551.45156145845,26378,1 26378U 00031A   25221.85379671 +.00000000 +00000+0 +00000+0 2 99997,2 26378  11.7855  34.5821 0009586 182.4299 180.8362  0.98765764000001,2025-08-09T21:06:31.832Z,system.exo,EXO,REAL,2,OPS1,"{'NORAD_ID': 26378, 'classification': 'U', 'COSPAR_ID': '00031A', 'BC': 0.0, 'n_ddot': 0.0, 'B_star': 0.0, 'ephemeris_type': 2, 'elset_num': 9999, 'inclination': 11.7855, 'RAAN': 34.5821, 'eccentricity': 0.0009586, 'perigee': 182.4299, 'mean_anomaly': 180.8362, 'mean_motion': 0.98765764, 'rev_num': 0, 'line1': '1 26378U 00031A   25221.85379671 +.00000000 +00000+0 +00000+0 2 99997', 'line2': '2 26378  11.7855  34.5821 0009586 182.4299 180.8362  0.98765764000001', 'epoch': datetime.datetime(2025, 8, 9, 20, 29, 28, 35744)}"
13c0872c-8cc8-4db4-ac34-6ac547eba8f7,U//PR-EXO-ELSETS,40895,2025-08-09T04:36:25.123600Z,1.002697191938843,40895,False,4.204277280179436e-05,0.0161627765033858,202.9259883070087,266.3143290716892,263.7929962241872,0.0,0.0,0.0,42165.31314377653,1436.126491204764,42167.08589045716,42163.54039709591,40895,1 40895U 15048A   25221.19195745 +.00000000 +00000+0 +00000+0 2 99996,2 40895   0.0162 202.9260 0000420 266.3143 263.7930  1.00269719000004,2025-08-09T05:51:30.269Z,system.exo,EXO,REAL,2,OPS1,"{'NORAD_ID': 40895, 'classification': 'U', 'COSPAR_ID': '15048A', 'BC': 0.0, 'n_ddot': 0.0, 'B_star': 0.0, 'ephemeris_type': 2, 'elset_num': 9999, 'inclination': 0.0162, 'RAAN': 202.926, 'eccentricity': 4.2e-05, 'perigee': 266.3143, 'mean_anomaly': 263.793, 'mean_motion': 1.00269719, 'rev_num': 0, 'line1': '1 40895U 15048A   25221.19195745 +.00000000 +00000+0 +00000+0 2 99996', 'line2': '2 40895   0.0162 202.9260 0000420 266.3143 263.7930  1.00269719000004', 'epoch': datetime.datetime(2025, 8, 9, 4, 36, 25, 123680)}"
0a9fd356-6eda-4ca6-bfc3-e547591ce9b1,U//PR-EXO-ELSETS,43700,2025-08-09T20:33:37.302288Z,1.002657077936152,43700,False,0.0001273758772258346,0.01582181599673168,170.1853957823963,324.0838736448691,158.5329768996663,0.0,0.0,0.0,42166.43776105199,1436.183947321317,42171.80874805129,42161.06677405268,43700,1 43700U 18090A   25221.85668174 +.00000000 +00000+0 +00000+0 2 99998,2 43700   0.0158 170.1854 0001273 324.0839 158.5330  1.00265707000001,2025-08-09T21:00:30.715Z,system.exo,EXO,REAL,2,OPS1,"{'NORAD_ID': 43700, 'classification': 'U', 'COSPAR_ID': '18090A', 'BC': 0.0, 'n_ddot': 0.0, 'B_star': 0.0, 'ephemeris_type': 2, 'elset_num': 9999, 'inclination': 0.0158, 'RAAN': 170.1854, 'eccentricity': 0.0001273, 'perigee': 324.0839, 'mean_anomaly': 158.533, 'mean_motion': 1.00265707, 'rev_num': 0, 'line1': '1 43700U 18090A   25221.85668174 +.00000000 +00000+0 +00000+0 2 99998', 'line2': '2 43700   0.0158 170.1854 0001273 324.0839 158.5330  1.00265707000001', 'epoch': datetime.datetime(2025, 8, 9, 20, 33, 37, 302336)}"
8f736d06-e294-4435-8377-4931bcb70342,U//PR-EXO-ELSETS,39233,2025-08-09T20:33:37.302288Z,1.002691287251957,39233,False,0.0002313650307515934,0.05053305968148113,10.26412783306589,127.4750015887861,154.7433875902099,0.0,0.0,0.0,42165.47868008891,1436.134948321493,42175.23429736037,42155.72306281743,39233,1 39233U 13044A   25221.85668174 +.00000000 +00000+0 +00000+0 2 99998,2 39233   0.0505  10.2641 0002313 127.4750 154.7434  1.00269128000008,2025-08-09T21:00:30.698Z,system.exo,EXO,REAL,2,OPS1,"{'NORAD_ID': 39233, 'classification': 'U', 'COSPAR_ID': '13044A', 'BC': 0.0, 'n_ddot': 0.0, 'B_star': 0.0, 'ephemeris_type': 2, 'elset_num': 9999, 'inclination': 0.0505, 'RAAN': 10.2641, 'eccentricity': 0.0002313, 'perigee': 127.475, 'mean_anomaly': 154.7434, 'mean_motion': 1.00269128, 'rev_num': 0, 'line1': '1 39233U 13044A   25221.85668174 +.00000000 +00000+0 +00000+0 2 99998', 'line2': '2 39233   0.0505  10.2641 0002313 127.4750 154.7434  1.00269128000008', 'epoch': datetime.datetime(2025, 8, 9, 20, 33, 37, 302336)}"
8c444689-4e01-4833-8ba9-a27353c719e5,U//PR-EXO-ELSETS,41029,2025-08-09T20:33:37.302288Z,1.002687141013309,41029,False,0.0005204976109554665,0.02506854493409023,166.4779391211749,44.38630858610833,82.10576917719372,0.0,0.0,0.0,42165.59491974775,1436.140886921862,42187.54201116799,42143.6478283275,41029,1 41029U 15065B   25221.85668174 +.00000000 +00000+0 +00000+0 2 99999,2 41029   0.0251 166.4779 0005204  44.3863  82.1058  1.00268714000008,2025-08-09T21:09:31.300Z,system.exo,EXO,REAL,2,OPS1,"{'NORAD_ID': 41029, 'classification': 'U', 'COSPAR_ID': '15065B', 'BC': 0.0, 'n_ddot': 0.0, 'B_star': 0.0, 'ephemeris_type': 2, 'elset_num': 9999, 'inclination': 0.0251, 'RAAN': 166.4779, 'eccentricity': 0.0005204, 'perigee': 44.3863, 'mean_anomaly': 82.1058, 'mean_motion': 1.00268714, 'rev_num': 0, 'line1': '1 41029U 15065B   25221.85668174 +.00000000 +00000+0 +00000+0 2 99999', 'line2': '2 41029   0.0251 166.4779 0005204  44.3863  82.1058  1.00268714000008', 'epoch': datetime.datetime(2025, 8, 9, 20, 33, 37, 302336)}"
8c6ca6fb-939c-4a81-94f9-cd7bf33477a4,U//PR-EXO-ELSETS,36592,2025-08-09T20:33:37.302288Z,1.002641482258032,36592,False,0.0005676433944383797,0.03723874436741542,123.0781918979811,21.99222410294466,147.9405303645867,0.0,0.0,0.0,42166.87501437906,1436.206286575137,42190.81076244508,42142.93926631304,36592,1 36592U 10025A   25221.85668174 +.00000000 +00000+0 +00000+0 2 99999,2 36592   0.0372 123.0782 0005676  21.9922 147.9405  1.00264148000007,2025-08-09T21:00:30.697Z,system.exo,EXO,REAL,2,OPS1,"{'NORAD_ID': 36592, 'classification': 'U', 'COSPAR_ID': '10025A', 'BC': 0.0, 'n_ddot': 0.0, 'B_star': 0.0, 'ephemeris_type': 2, 'elset_num': 9999, 'inclination': 0.0372, 'RAAN': 123.0782, 'eccentricity': 0.0005676, 'perigee': 21.9922, 'mean_anomaly': 147.9405, 'mean_motion': 1.00264148, 'rev_num': 0, 'line1': '1 36592U 10025A   25221.85668174 +.00000000 +00000+0 +00000+0 2 99999', 'line2': '2 36592   0.0372 123.0782 0005676  21.9922 147.9405  1.00264148000007', 'epoch': datetime.datetime(2025, 8, 9, 20, 33, 37, 302336)}"
17bdf485-ccf7-4fda-b9f7-f3cd0780047b,U//PR-EXO-ELSETS,29526,2025-08-09T20:05:06.955661Z,1.002688912140689,29526,False,0.000220263462275226,1.195237020457249,84.54654168539498,91.78854303108436,109.7427129632573,0.0,0.0,0.0,42165.54526615414,1436.13835015456,42174.83279514319,42156.2577371651,29526,1 29526U 06051A   25221.83688606 +.00000000 +00000+0 +00000+0 2 99992,2 29526   1.1952  84.5465 0002202  91.7885 109.7427  1.00268891000005,2025-08-09T20:39:30.715Z,system.exo,EXO,REAL,2,OPS1,"{'NORAD_ID': 29526, 'classification': 'U', 'COSPAR_ID': '06051A', 'BC': 0.0, 'n_ddot': 0.0, 'B_star': 0.0, 'ephemeris_type': 2, 'elset_num': 9999, 'inclination': 1.1952, 'RAAN': 84.5465, 'eccentricity': 0.0002202, 'perigee': 91.7885, 'mean_anomaly': 109.7427, 'mean_motion': 1.00268891, 'rev_num': 0, 'line1': '1 29526U 06051A   25221.83688606 +.00000000 +00000+0 +00000+0 2 99992', 'line2': '2 29526   1.1952  84.5465 0002202  91.7885 109.7427  1.00268891000005', 'epoch': datetime.datetime(2025, 8, 9, 20, 5, 6, 955584)}"
03d1ab64-40bb-43ac-b4b0-0f6f73df6233,U//PR-EXO-ELSETS,56757,2025-08-09T18:57:24.532312Z,1.002639451744374,56757,False,0.0002351715702304006,0.07266159989136284,30.74492382843662,11.50983082735182,226.6124162709161,0.0,0.0,0.0,42166.93194437291,1436.209195134616,42176.84840797007,42157.01548077575,56757,1 56757U 23075A   25221.78986727 +.00000000 +00000+0 +00000+0 2 99992,2 56757   0.0727  30.7449 0002351  11.5098 226.6124  1.00263945000003,2025-08-09T20:06:32.200Z,system.exo,EXO,REAL,2,OPS1,"{'NORAD_ID': 56757, 'classification': 'U', 'COSPAR_ID': '23075A', 'BC': 0.0, 'n_ddot': 0.0, 'B_star': 0.0, 'ephemeris_type': 2, 'elset_num': 9999, 'inclination': 0.0727, 'RAAN': 30.7449, 'eccentricity': 0.0002351, 'perigee': 11.5098, 'mean_anomaly': 226.6124, 'mean_motion': 1.00263945, 'rev_num': 0, 'line1': '1 56757U 23075A   25221.78986727 +.00000000 +00000+0 +00000+0 2 99992', 'line2': '2 56757   0.0727  30.7449 0002351  11.5098 226.6124  1.00263945000003', 'epoch': datetime.datetime(2025, 8, 9, 18, 57, 24, 532128)}"
